HULIANWANG DIGUI-140    
1 67438U 26007D   26204.71815444 -.00000098  00000+0  55207-4 0  9991
2 67438  50.0072 315.0229 0000815 147.0362 213.0561 13.29326383 25648
HULIANWANG DIGUI-141    
1 67439U 26007E   26204.75988211 -.00000100  00000+0  51263-4 0  9991
2 67439  50.0060 314.5681 0000847 146.5823 213.5103 13.29327105 25654
HULIANWANG DIGUI-142    
1 67440U 26007F   26204.67638441 -.00000098  00000+0  55526-4 0  9993
2 67440  50.0140 314.9150 0000838 146.3523 213.7403 13.29326934 25648
HULIANWANG DIGUI-143    
1 67441U 26007G   26204.66808455 -.00000099  00000+0  54703-4 0  9994
2 67441  50.0119 314.8415 0000702 151.3462 208.7449 13.29325271 25643
HULIANWANG DIGUI-144    
1 67442U 26007H   26204.65951589 -.00000101  00000+0  50628-4 0  9997
2 67442  50.0107 314.7811 0000853 149.4076 210.6846 13.29329529 25649
HULIANWANG DIGUI-145    
1 67443U 26007J   26204.72655248 -.00000098  00000+0  57212-4 0  9990
2 67443  50.0110 314.4750 0000791 147.2683 212.8238 13.29326150 25651
HULIANWANG DIGUI-146    
1 67522U 26013A   26204.39545581 -.00000086  00000+0  81580-4 0  9998
2 67522  50.0057 226.0474 0001363 249.1528 110.9198 13.29325641 24865
HULIANWANG DIGUI-147    
1 67523U 26013B   26204.46211596 -.00000088  00000+0  77992-4 0  9997
2 67523  50.0027 225.6841 0001262 250.4972 109.5764 13.29329201 24872
HULIANWANG DIGUI-148    
1 67524U 26013C   26204.45374618 -.00000087  00000+0  79624-4 0  9995
2 67524  50.0067 225.7056 0001301 248.2862 111.7871 13.29327119 24873
HULIANWANG DIGUI-149    
1 67525U 26013D   26204.44552009 -.00000120  00000+0  85370-5 0  9991
2 67525  50.0074 225.6534 0001482 249.6711 110.4002 13.29328913 24875
HULIANWANG DIGUI-150    
1 67526U 26013E   26204.42885942 -.00000166  00000+0 -89507-4 0  9991
2 67526  50.0038 225.5063 0001255 250.8260 109.2477 13.29324342 24899
HULIANWANG DIGUI-151    
1 67527U 26013F   26204.43716966 -.00000084  00000+0  85309-4 0  9996
2 67527  50.0068 225.6184 0001300 250.0214 110.0518 13.29326635 24871
HULIANWANG DIGUI-152    
1 67528U 26013G   26204.42037089 -.00000084  00000+0  85171-4 0  9995
2 67528  50.0017 225.4518 0001314 251.0969 108.9761 13.29332897 24871
HULIANWANG DIGUI-153    
1 67529U 26013H   26204.41216145 -.00000085  00000+0  84147-4 0  9990
2 67529  50.0019 225.4121 0001320 252.2717 107.8011 13.29324218 24868
HULIANWANG DIGUI-154    
1 67530U 26013J   26204.32847697 -.00000087  00000+0  79807-4 0  9993
2 67530  50.0042 225.6781 0001291 249.9770 110.0964 13.29332649 24858
HULIANWANG DIGUI-155    
1 68129U 26047A   26204.61593900 -.00000096  00000+0  61239-4 0  9992
2 68129  50.0035 285.7319 0001042 230.3746 129.7034 13.29326137 17919
