{"fetched_at":"2026-07-24T07:06:33.741Z","source":"https://celestrak.org/NORAD/elements/gp.php?NAME=HULIANWANG&FORMAT=JSON","constellation":"guowang","records":[{"OBJECT_NAME":"HULIANWANG DIGUI-140","OBJECT_ID":"2026-007D","EPOCH":"2026-07-23T17:14:08.543616","CLASSIFICATION_TYPE":"U","MEAN_MOTION":13.29326383,"ECCENTRICITY":0.0000815,"INCLINATION":50.0072,"RA_OF_ASC_NODE":315.0229,"ARG_OF_PERICENTER":147.0362,"MEAN_ANOMALY":213.0561,"EPHEMERIS_TYPE":0,"NORAD_CAT_ID":67438,"ELEMENT_SET_NO":999,"REV_AT_EPOCH":2564,"BSTAR":0.000055207,"MEAN_MOTION_DOT":-9.8e-7,"MEAN_MOTION_DDOT":0},{"OBJECT_NAME":"HULIANWANG DIGUI-141","OBJECT_ID":"2026-007E","EPOCH":"2026-07-23T18:14:13.814304","CLASSIFICATION_TYPE":"U","MEAN_MOTION":13.29327105,"ECCENTRICITY":0.0000847,"INCLINATION":50.006,"RA_OF_ASC_NODE":314.5681,"ARG_OF_PERICENTER":146.5823,"MEAN_ANOMALY":213.5103,"EPHEMERIS_TYPE":0,"NORAD_CAT_ID":67439,"ELEMENT_SET_NO":999,"REV_AT_EPOCH":2565,"BSTAR":0.000051263,"MEAN_MOTION_DOT":-0.000001,"MEAN_MOTION_DDOT":0},{"OBJECT_NAME":"HULIANWANG DIGUI-142","OBJECT_ID":"2026-007F","EPOCH":"2026-07-23T16:13:59.613024","CLASSIFICATION_TYPE":"U","MEAN_MOTION":13.29326934,"ECCENTRICITY":0.0000838,"INCLINATION":50.014,"RA_OF_ASC_NODE":314.915,"ARG_OF_PERICENTER":146.3523,"MEAN_ANOMALY":213.7403,"EPHEMERIS_TYPE":0,"NORAD_CAT_ID":67440,"ELEMENT_SET_NO":999,"REV_AT_EPOCH":2564,"BSTAR":0.000055526,"MEAN_MOTION_DOT":-9.8e-7,"MEAN_MOTION_DDOT":0},{"OBJECT_NAME":"HULIANWANG DIGUI-143","OBJECT_ID":"2026-007G","EPOCH":"2026-07-23T16:02:02.505120","CLASSIFICATION_TYPE":"U","MEAN_MOTION":13.29325271,"ECCENTRICITY":0.0000702,"INCLINATION":50.0119,"RA_OF_ASC_NODE":314.8415,"ARG_OF_PERICENTER":151.3462,"MEAN_ANOMALY":208.7449,"EPHEMERIS_TYPE":0,"NORAD_CAT_ID":67441,"ELEMENT_SET_NO":999,"REV_AT_EPOCH":2564,"BSTAR":0.000054703,"MEAN_MOTION_DOT":-9.9e-7,"MEAN_MOTION_DDOT":0},{"OBJECT_NAME":"HULIANWANG DIGUI-144","OBJECT_ID":"2026-007H","EPOCH":"2026-07-23T15:49:42.172896","CLASSIFICATION_TYPE":"U","MEAN_MOTION":13.29329529,"ECCENTRICITY":0.0000853,"INCLINATION":50.0107,"RA_OF_ASC_NODE":314.7811,"ARG_OF_PERICENTER":149.4076,"MEAN_ANOMALY":210.6846,"EPHEMERIS_TYPE":0,"NORAD_CAT_ID":67442,"ELEMENT_SET_NO":999,"REV_AT_EPOCH":2564,"BSTAR":0.000050628,"MEAN_MOTION_DOT":-0.00000101,"MEAN_MOTION_DDOT":0},{"OBJECT_NAME":"HULIANWANG DIGUI-145","OBJECT_ID":"2026-007J","EPOCH":"2026-07-23T17:26:14.134272","CLASSIFICATION_TYPE":"U","MEAN_MOTION":13.2932615,"ECCENTRICITY":0.0000791,"INCLINATION":50.011,"RA_OF_ASC_NODE":314.475,"ARG_OF_PERICENTER":147.2683,"MEAN_ANOMALY":212.8238,"EPHEMERIS_TYPE":0,"NORAD_CAT_ID":67443,"ELEMENT_SET_NO":999,"REV_AT_EPOCH":2565,"BSTAR":0.000057212,"MEAN_MOTION_DOT":-9.8e-7,"MEAN_MOTION_DDOT":0},{"OBJECT_NAME":"HULIANWANG DIGUI-146","OBJECT_ID":"2026-013A","EPOCH":"2026-07-23T09:29:27.381984","CLASSIFICATION_TYPE":"U","MEAN_MOTION":13.29325641,"ECCENTRICITY":0.0001363,"INCLINATION":50.0057,"RA_OF_ASC_NODE":226.0474,"ARG_OF_PERICENTER":249.1528,"MEAN_ANOMALY":110.9198,"EPHEMERIS_TYPE":0,"NORAD_CAT_ID":67522,"ELEMENT_SET_NO":999,"REV_AT_EPOCH":2486,"BSTAR":0.00008158,"MEAN_MOTION_DOT":-8.6e-7,"MEAN_MOTION_DDOT":0},{"OBJECT_NAME":"HULIANWANG DIGUI-147","OBJECT_ID":"2026-013B","EPOCH":"2026-07-23T11:05:26.818944","CLASSIFICATION_TYPE":"U","MEAN_MOTION":13.29329201,"ECCENTRICITY":0.0001262,"INCLINATION":50.0027,"RA_OF_ASC_NODE":225.6841,"ARG_OF_PERICENTER":250.4972,"MEAN_ANOMALY":109.5764,"EPHEMERIS_TYPE":0,"NORAD_CAT_ID":67523,"ELEMENT_SET_NO":999,"REV_AT_EPOCH":2487,"BSTAR":0.000077992,"MEAN_MOTION_DOT":-8.8e-7,"MEAN_MOTION_DDOT":0},{"OBJECT_NAME":"HULIANWANG DIGUI-148","OBJECT_ID":"2026-013C","EPOCH":"2026-07-23T10:53:23.669952","CLASSIFICATION_TYPE":"U","MEAN_MOTION":13.29327119,"ECCENTRICITY":0.0001301,"INCLINATION":50.0067,"RA_OF_ASC_NODE":225.7056,"ARG_OF_PERICENTER":248.2862,"MEAN_ANOMALY":111.7871,"EPHEMERIS_TYPE":0,"NORAD_CAT_ID":67524,"ELEMENT_SET_NO":999,"REV_AT_EPOCH":2487,"BSTAR":0.000079624,"MEAN_MOTION_DOT":-8.7e-7,"MEAN_MOTION_DDOT":0},{"OBJECT_NAME":"HULIANWANG DIGUI-149","OBJECT_ID":"2026-013D","EPOCH":"2026-07-23T10:41:32.935776","CLASSIFICATION_TYPE":"U","MEAN_MOTION":13.29328913,"ECCENTRICITY":0.0001482,"INCLINATION":50.0074,"RA_OF_ASC_NODE":225.6534,"ARG_OF_PERICENTER":249.6711,"MEAN_ANOMALY":110.4002,"EPHEMERIS_TYPE":0,"NORAD_CAT_ID":67525,"ELEMENT_SET_NO":999,"REV_AT_EPOCH":2487,"BSTAR":0.000008537,"MEAN_MOTION_DOT":-0.0000012,"MEAN_MOTION_DDOT":0},{"OBJECT_NAME":"HULIANWANG DIGUI-150","OBJECT_ID":"2026-013E","EPOCH":"2026-07-23T10:17:33.453888","CLASSIFICATION_TYPE":"U","MEAN_MOTION":13.29324342,"ECCENTRICITY":0.0001255,"INCLINATION":50.0038,"RA_OF_ASC_NODE":225.5063,"ARG_OF_PERICENTER":250.826,"MEAN_ANOMALY":109.2477,"EPHEMERIS_TYPE":0,"NORAD_CAT_ID":67526,"ELEMENT_SET_NO":999,"REV_AT_EPOCH":2489,"BSTAR":-0.000089507,"MEAN_MOTION_DOT":-0.00000166,"MEAN_MOTION_DDOT":0},{"OBJECT_NAME":"HULIANWANG DIGUI-151","OBJECT_ID":"2026-013F","EPOCH":"2026-07-23T10:29:31.458624","CLASSIFICATION_TYPE":"U","MEAN_MOTION":13.29326635,"ECCENTRICITY":0.00013,"INCLINATION":50.0068,"RA_OF_ASC_NODE":225.6184,"ARG_OF_PERICENTER":250.0214,"MEAN_ANOMALY":110.0518,"EPHEMERIS_TYPE":0,"NORAD_CAT_ID":67527,"ELEMENT_SET_NO":999,"REV_AT_EPOCH":2487,"BSTAR":0.000085309,"MEAN_MOTION_DOT":-8.4e-7,"MEAN_MOTION_DDOT":0},{"OBJECT_NAME":"HULIANWANG DIGUI-152","OBJECT_ID":"2026-013G","EPOCH":"2026-07-23T10:05:20.044896","CLASSIFICATION_TYPE":"U","MEAN_MOTION":13.29332897,"ECCENTRICITY":0.0001314,"INCLINATION":50.0017,"RA_OF_ASC_NODE":225.4518,"ARG_OF_PERICENTER":251.0969,"MEAN_ANOMALY":108.9761,"EPHEMERIS_TYPE":0,"NORAD_CAT_ID":67528,"ELEMENT_SET_NO":999,"REV_AT_EPOCH":2487,"BSTAR":0.000085171,"MEAN_MOTION_DOT":-8.4e-7,"MEAN_MOTION_DDOT":0},{"OBJECT_NAME":"HULIANWANG DIGUI-153","OBJECT_ID":"2026-013H","EPOCH":"2026-07-23T09:53:30.749280","CLASSIFICATION_TYPE":"U","MEAN_MOTION":13.29324218,"ECCENTRICITY":0.000132,"INCLINATION":50.0019,"RA_OF_ASC_NODE":225.4121,"ARG_OF_PERICENTER":252.2717,"MEAN_ANOMALY":107.8011,"EPHEMERIS_TYPE":0,"NORAD_CAT_ID":67529,"ELEMENT_SET_NO":999,"REV_AT_EPOCH":2486,"BSTAR":0.000084147,"MEAN_MOTION_DOT":-8.5e-7,"MEAN_MOTION_DDOT":0},{"OBJECT_NAME":"HULIANWANG DIGUI-154","OBJECT_ID":"2026-013J","EPOCH":"2026-07-23T07:53:00.410208","CLASSIFICATION_TYPE":"U","MEAN_MOTION":13.29332649,"ECCENTRICITY":0.0001291,"INCLINATION":50.0042,"RA_OF_ASC_NODE":225.6781,"ARG_OF_PERICENTER":249.977,"MEAN_ANOMALY":110.0964,"EPHEMERIS_TYPE":0,"NORAD_CAT_ID":67530,"ELEMENT_SET_NO":999,"REV_AT_EPOCH":2485,"BSTAR":0.000079807,"MEAN_MOTION_DOT":-8.7e-7,"MEAN_MOTION_DDOT":0},{"OBJECT_NAME":"HULIANWANG DIGUI-155","OBJECT_ID":"2026-047A","EPOCH":"2026-07-23T14:46:57.129600","CLASSIFICATION_TYPE":"U","MEAN_MOTION":13.29326137,"ECCENTRICITY":0.0001042,"INCLINATION":50.0035,"RA_OF_ASC_NODE":285.7319,"ARG_OF_PERICENTER":230.3746,"MEAN_ANOMALY":129.7034,"EPHEMERIS_TYPE":0,"NORAD_CAT_ID":68129,"ELEMENT_SET_NO":999,"REV_AT_EPOCH":1791,"BSTAR":0.000061239,"MEAN_MOTION_DOT":-9.6e-7,"MEAN_MOTION_DDOT":0}]}
